#aV2008  5  6  0  0   .00000000      96 DD+AD WGS84 FIT  NGA
## 1478 172800.00000000   900.00000000 54592  .0000000000000
+   31     2  3  4  5  6  7  8  9 10 11 12 13 14 15 16 17 18
+         19 20 21 22 23 24 25 26 27 28 29 30 31 32  0  0  0
+          0  0  0  0  0  0  0  0  0  0  0  0  0  0  0  0  0
+          0  0  0  0  0  0  0  0  0  0  0  0  0  0  0  0  0
+          0  0  0  0  0  0  0  0  0  0  0  0  0  0  0  0  0
++         0  0  0  0  0  0  0  0  0  0  0  0  0  0  0  0  0
++         0  0  0  0  0  0  0  0  0  0  0  0  0  0  0  0  0
++         0  0  0  0  0  0  0  0  0  0  0  0  0  0  0  0  0
++         0  0  0  0  0  0  0  0  0  0  0  0  0  0  0  0  0
++         0  0  0  0  0  0  0  0  0  0  0  0  0  0  0  0  0
%c cc cc ccc ccc cccc cccc cccc cccc ccccc ccccc ccccc ccccc
%c cc cc ccc ccc cccc cccc cccc cccc ccccc ccccc ccccc ccccc
%f  0.0000000  0.000000000  0.00000000000  0.000000000000000
%f  0.0000000  0.000000000  0.00000000000  0.000000000000000
%i    0    0    0    0      0      0      0      0         0
%i    0    0    0    0      0      0      0      0         0
/*      NGA, ST. LOUIS,MO.                                  
/*   EPHEMERIS COMPUTED FROM  3 DAYS OF DATA                
/* CCCCCCCCCCCCCCCCCCCCCCCCCCCCCCCCCCCCCCCCCCCCCCCCCCCCCCCCC
/* CCCCCCCCCCCCCCCCCCCCCCCCCCCCCCCCCCCCCCCCCCCCCCCCCCCCCCCCC
*  2008  5  6 21 45   .00000000                                                 
P  2   9465.604218  21332.251233  12837.833931    200.116639                    
V  2 -13802.943944  -9318.941582  24989.990073       .048535                    
P  3  -5575.012555 -15103.614975 -21370.267744    224.505119                    
V  3  24704.127223 -10138.764186   1083.151317       .052840                    
P  4  -2325.534622  17486.193515  19654.282199    -61.605373                    
V  4 -19385.840667 -16382.561621  12579.169833      -.083237                    
P  5  15295.875770   2471.854929  21304.883095    766.357415                    
V  5  -3786.823635  27498.082862   -322.649588       .086564                    
P  6   8457.878104 -17230.216745 -18210.376969    120.585572                    
V  6  22869.339547  -5928.991804  16045.164673       .098373                    
P  7 -19847.708096  -1775.244644 -17619.359115    -49.857096                    
V  7 -15182.179741 -16399.623197  18716.898953       .099324                    
P  8 -11345.800158   9478.357095 -22158.171618   -151.896012                    
V  8 -19398.975431 -19989.347708    932.079949      -.015833                    
P  9  21650.735072  14596.526193   4680.367571    123.307999                    
V  9   3494.640151   6195.704100 -31146.802671       .016912                    
P 10   2574.398448  23420.130493 -12065.116599     -1.313144                    
V 10  -6221.091167  14114.533932  26689.366464      -.004075                    
P 11 -24221.622556  -9276.965040   6298.118737     25.820195                    
V 11  -4558.087099  -8168.529906 -28530.213963      -.002573                    
P 12  13427.816074   8198.782776  21502.815953   -359.173005                    
V 12  -6623.692486  26245.584223  -5804.579305      -.000199                    
P 13 -25773.480972   6347.233611    268.928801    254.083259                    
V 13     44.305329  -1799.733299  32517.999903       .017746                    
P 14  17008.364254 -14448.761296  14425.517862   -269.618522                    
V 14  17889.236250  -3315.445518 -24671.535301       .041231                    
P 15  15133.807955   9656.647252 -19555.702342   -107.295277                    
V 15 -23350.155610   8700.648401 -13750.178432      -.054330                    
P 16   1179.802760 -25379.006016  -7303.108167    126.085924                    
V 16   4928.793788  -8473.561432  30129.478115      -.013435                    
P 17 -16692.415470  15086.218708  14027.581566     39.285306                    
V 17 -17743.559695   2772.023015 -24318.616269      -.001660                    
P 18  16120.602303 -11121.580548 -17598.443899   -180.545188                    
V 18  -3971.995722  22622.289382 -18111.245185       .036670                    
P 19 -15542.559462 -10145.521593 -18978.110638     29.177965                    
V 19  23318.721156  -6728.006184 -15250.783981       .009271                    
P 20 -14460.155724  -5861.913578  21376.736813    114.933888                    
V 20   6083.146632 -26791.867314  -3172.430922      -.008366                    
P 21  17545.357133  -3039.394756 -19698.738986     65.047510                    
V 21  17259.908019  18560.845147  11787.490333      -.010656                    
P 22  11631.763186 -22730.074684  -7066.706366    210.967890                    
V 22    602.226546   9723.355909 -29696.848941       .001046                    
P 23 -23513.848930  -1794.977858  12387.770827    352.124555                    
V 23  14525.250129  -6334.492421  26267.629155       .022648                    
P 24  21306.097857   9794.033640 -12033.180514     91.913272                    
V 24   8867.372265  13205.233298  26361.169289       .028216                    
P 25 -22435.724552  -6933.301021 -11870.500055   -132.730720                    
V 25 -10906.931849 -11564.482046  26740.203859      -.272234                    
P 26  11474.247434  11580.689180 -21570.548676    247.640533                    
V 26 -25199.617351   6616.214584  -9546.739754       .082361                    
P 27 -18681.699402    778.858838 -18251.513656    186.554096                    
V 27 -17929.360194 -16757.359576  16882.999306       .027112                    
P 28 -12053.398680  21551.465086  -8937.045205    -18.701803                    
V 28    269.801540 -12319.936298 -29170.197548      -.004683                    
P 29  25889.917507  -4303.383044   4101.941503    -43.320431                    
V 29  -4110.699692   4089.066313  31176.161120       .002677                    
P 30  15842.980334  -5455.276547  20249.700150     75.246929                    
V 30  -3875.016664  26280.761876  10047.112372       .017351                    
P 31    118.506196 -18214.413495  19497.886712    -19.009585                    
V 31  18646.500204  15680.638860  14797.190954      -.012920                    
P 32  -3033.757924 -22533.492273  14317.559126    280.999905                    
V 32   6960.152249 -15988.580531 -24256.593586       .057429                    
EOF
